{"spkid": "50182192", "covariance": {"labels": ["e", "q", "tp", "node", "peri", "i", "A2"], "elements": [{"units": null, "title": "eccentricity", "value": ".1755186726198663", "sigma": 7.74833621593656e-08, "name": "e", "label": "e"}, {"title": "perihelion distance", "value": ".8945727980071205", "units": "au", "name": "q", "sigma": 8.6289391834947e-08, "label": "q"}, {"sigma": 3.92314104579623e-05, "name": "tp", "value": "2458019.671543881341", "title": "time of perihelion passage", "units": "TDB", "label": "tp"}, {"label": "node", "units": "deg", "value": "143.9739763844676", "title": "longitude of the ascending node", "name": "om", "sigma": 0.000208498910685258}, {"units": "deg", "value": "2.117471023929313", "title": "argument of perihelion", "sigma": 0.000223742121824551, "name": "w", "label": "peri"}, {"label": "i", "name": "i", "sigma": 2.81030576495242e-06, "title": "inclination", "value": "1.499769189965527", "units": "deg"}], "data": [["6.00367141151941E-15", "-6.666237195166664E-15", "-2.042546548254888E-12", "2.234081084801277E-12", "-3.439751110138194E-12", "2.614727511187314E-14", "1.423589271768348E-22"], ["-6.666237195166664E-15", "7.445859143245019E-15", "2.265761964090151E-12", "-2.740179093413042E-12", "4.148210192805083E-12", "-3.412472272936233E-14", "2.607386967672745E-23"], ["-2.042546548254888E-12", "2.265761964090151E-12", "1.539103566521115E-9", "-3.48098666859685E-9", "4.511875023440095E-9", "-5.635622668082546E-11", "-1.472259760826223E-19"], ["2.234081084801277E-12", "-2.740179093413042E-12", "-3.48098666859685E-9", "4.347179575693939E-8", "-4.63567073909778E-8", "3.877970133129144E-10", "-7.299793606711601E-19"], ["-3.439751110138194E-12", "4.148210192805083E-12", "4.511875023440095E-9", "-4.63567073909778E-8", "5.006053707855201E-8", "-4.366689441990497E-10", "9.276480425821162E-19"], ["2.614727511187314E-14", "-3.412472272936233E-14", "-5.635622668082546E-11", "3.877970133129144E-10", "-4.366689441990497E-10", "7.897818492524779E-12", "-1.495926153116157E-20"], ["1.423589271768348E-22", "2.607386967672745E-23", "-1.472259760826223E-19", "-7.299793606711601E-19", "9.276480425821162E-19", "-1.495926153116157E-20", "7.874915021506816E-28"]], "epoch": "2458183.5"}, "elements": [{"label": "e", "name": "e", "sigma": "7.7618E-8", "units": null, "value": ".1755878983713882", "title": "eccentricity"}, {"name": "a", "sigma": "1.7171E-8", "units": "au", "value": "1.085288259378771", "title": "semi-major axis", "label": "a"}, {"label": "q", "units": "au", "title": "perihelion distance", "value": ".8947247747873104", "name": "q", "sigma": "8.6114E-8"}, {"title": "inclination; angle with respect to x-y ecliptic plane", "value": "1.502676801512792", "units": "deg", "sigma": "2.8214E-6", "name": "i", "label": "i"}, {"label": "node", "units": "deg", "title": "longitude of the ascending node", "value": "143.8083943980351", "sigma": ".00020776", "name": "om"}, {"sigma": ".00022295", "name": "w", "title": "argument of perihelion", "value": "1.999297213562696", "units": "deg", "label": "peri"}, {"label": "M", "sigma": "5.9112E-5", "name": "ma", "units": "deg", "title": "mean anomaly", "value": "253.3541525593047"}, {"title": "time of perihelion passage", "value": "2461322.836917369425", "units": "TDB", "sigma": "7.008E-5", "name": "tp", "label": "tp"}, {"label": "period", "sigma": "9.801E-6", "name": "per", "title": "sidereal orbital period", "value": "412.9676992579003", "units": "d"}, {"name": "n", "sigma": "2.0689E-8", "value": ".8717388809025914", "title": "mean motion", "units": "deg/d", "label": "n"}, {"label": "Q", "units": "au", "title": "aphelion distance", "value": "1.275851743970231", "name": "ad", "sigma": "2.0187E-8"}], "epoch": "2461200.5"}